{"type": "FeatureCollection", "features": [ {"type": "Feature", "properties": {"norad_id": 66911, "name": "1998-067XX", "group": "stations", "lat": -51.43495075622139, "lon": -16.679683485684762, "alt_km": 408.03933431500354, "timestamp": "2025-12-25T07:41:08.484513+00:00", "meta": {"OBJECT_NAME": "1998-067XX", "OBJECT_ID": "1998-067XX", "EPOCH": "2025-12-24T12:01:16.027680", "MEAN_MOTION": 15.53629314, "ECCENTRICITY": 0.00036167, "INCLINATION": 51.6307, "RA_OF_ASC_NODE": 83.8279, "ARG_OF_PERICENTER": 280.2913, "MEAN_ANOMALY": 79.7669, "EPHEMERIS_TYPE": 0, "CLASSIFICATION_TYPE": "U", "NORAD_CAT_ID": 66911, "ELEMENT_SET_NO": 999, "REV_AT_EPOCH": 343, "BSTAR": 0.001193789, "MEAN_MOTION_DOT": 0.00077903, "MEAN_MOTION_DDOT": 0}, "tle": {"line1": "1 66911U 98067XX  25358.50087995  .00077903  00000+0  11938-2 0  9998", "line2": "2 66911  51.6307  83.8279 0003616 280.2913  79.7669 15.53629314  3438"}}, "geometry": {"type": "Point", "coordinates": [-16.679683485684762, -51.43495075622139]}}, {"type": "Feature", "properties": {"norad_id": 66912, "name": "1998-067XY", "group": "stations", "lat": -10.02819906517585, "lon": -92.04997207660658, "alt_km": 412.2332806256127, "timestamp": "2025-12-25T07:41:08.484523+00:00", "meta": {"OBJECT_NAME": "1998-067XY", "OBJECT_ID": "1998-067XY", "EPOCH": "2025-12-24T12:19:04.376640", "MEAN_MOTION": 15.52269671, "ECCENTRICITY": 0.00038943, "INCLINATION": 51.6319, "RA_OF_ASC_NODE": 83.9109, "ARG_OF_PERICENTER": 289.4763, "MEAN_ANOMALY": 70.5806, "EPHEMERIS_TYPE": 0, "CLASSIFICATION_TYPE": "U", "NORAD_CAT_ID": 66912, "ELEMENT_SET_NO": 999, "REV_AT_EPOCH": 343, "BSTAR": 0.00087040154, "MEAN_MOTION_DOT": 0.00053773, "MEAN_MOTION_DDOT": 0}, "tle": {"line1": "1 66912U 98067XY  25358.51324510  .00053773  00000+0  87040-3 0  9994", "line2": "2 66912  51.6319  83.9109 0003894 289.4763  70.5806 15.52269671  3434"}}, "geometry": {"type": "Point", "coordinates": [-92.04997207660658, -10.02819906517585]}}]}